CCSDS_OMM_VERS = 2.0
CREATION_DATE  = 
ORIGINATOR     = 

OBJECT_NAME    = SL-16 R/B
OBJECT_ID      = 1998-043G
CENTER_NAME    = EARTH
REF_FRAME      = TEME
TIME_SYSTEM    = UTC
MEAN_ELEMENT_THEORY = SGP/SGP4

EPOCH          = 2025-12-09T13:41:58.048800
MEAN_MOTION    = 14.26024451
ECCENTRICITY   = .000881
INCLINATION    = 98.8119
RA_OF_ASC_NODE = 291.3712
ARG_OF_PERICENTER = 277.0903
MEAN_ANOMALY   = 82.9275

EPHEMERIS_TYPE = 0
CLASSIFICATION_TYPE = U
NORAD_CAT_ID   = 25400
ELEMENT_SET_NO = 999
REV_AT_EPOCH   = 42614
BSTAR          = .916E-4
MEAN_MOTION_DOT = .173E-5
MEAN_MOTION_DDOT = 0

CCSDS_OMM_VERS = 2.0
CREATION_DATE  = 
ORIGINATOR     = 

OBJECT_NAME    = SL-16 R/B
OBJECT_ID      = 1998-045B
CENTER_NAME    = EARTH
REF_FRAME      = TEME
TIME_SYSTEM    = UTC
MEAN_ELEMENT_THEORY = SGP/SGP4

EPOCH          = 2025-12-09T19:09:14.563008
MEAN_MOTION    = 14.16175758
ECCENTRICITY   = .0007076
INCLINATION    = 71.0121
RA_OF_ASC_NODE = 10.6135
ARG_OF_PERICENTER = 182.3851
MEAN_ANOMALY   = 177.7240

EPHEMERIS_TYPE = 0
CLASSIFICATION_TYPE = U
NORAD_CAT_ID   = 25407
ELEMENT_SET_NO = 999
REV_AT_EPOCH   = 41437
BSTAR          = -.53559E-4
MEAN_MOTION_DOT = -.154E-5
MEAN_MOTION_DDOT = 0

CCSDS_OMM_VERS = 2.0
CREATION_DATE  = 
ORIGINATOR     = 

OBJECT_NAME    = ISS (ZARYA)
OBJECT_ID      = 1998-067A
CENTER_NAME    = EARTH
REF_FRAME      = TEME
TIME_SYSTEM    = UTC
MEAN_ELEMENT_THEORY = SGP/SGP4

EPOCH          = 2025-12-09T12:14:10.838688
MEAN_MOTION    = 15.49447168
ECCENTRICITY   = .00034
INCLINATION    = 51.6310
RA_OF_ASC_NODE = 158.4724
ARG_OF_PERICENTER = 223.8185
MEAN_ANOMALY   = 136.2534

EPHEMERIS_TYPE = 0
CLASSIFICATION_TYPE = U
NORAD_CAT_ID   = 25544
ELEMENT_SET_NO = 999
REV_AT_EPOCH   = 54235
BSTAR          = .26026E-3
MEAN_MOTION_DOT = .14141E-3
MEAN_MOTION_DDOT = 0

CCSDS_OMM_VERS = 2.0
CREATION_DATE  = 
ORIGINATOR     = 

OBJECT_NAME    = CZ-4B R/B
OBJECT_ID      = 1999-025C
CENTER_NAME    = EARTH
REF_FRAME      = TEME
TIME_SYSTEM    = UTC
MEAN_ELEMENT_THEORY = SGP/SGP4

EPOCH          = 2025-12-09T21:05:12.348096
MEAN_MOTION    = 14.18242544
ECCENTRICITY   = .0036205
INCLINATION    = 98.6772
RA_OF_ASC_NODE = 25.2226
ARG_OF_PERICENTER = 242.4335
MEAN_ANOMALY   = 290.7342

EPHEMERIS_TYPE = 0
CLASSIFICATION_TYPE = U
NORAD_CAT_ID   = 25732
ELEMENT_SET_NO = 999
REV_AT_EPOCH   = 37543
BSTAR          = .83493E-4
MEAN_MOTION_DOT = .129E-5
MEAN_MOTION_DDOT = 0

CCSDS_OMM_VERS = 2.0
CREATION_DATE  = 
ORIGINATOR     = 

OBJECT_NAME    = OKEAN-O
OBJECT_ID      = 1999-039A
CENTER_NAME    = EARTH
REF_FRAME      = TEME
TIME_SYSTEM    = UTC
MEAN_ELEMENT_THEORY = SGP/SGP4

EPOCH          = 2025-12-09T03:20:17.606688
MEAN_MOTION    = 14.80151028
ECCENTRICITY   = .00007906
INCLINATION    = 97.9606
RA_OF_ASC_NODE = 38.8718
ARG_OF_PERICENTER = 90.1743
MEAN_ANOMALY   = 269.9559

EPHEMERIS_TYPE = 0
CLASSIFICATION_TYPE = U
NORAD_CAT_ID   = 25860
ELEMENT_SET_NO = 999
REV_AT_EPOCH   = 42099
BSTAR          = .16362553E-3
MEAN_MOTION_DOT = .119E-4
MEAN_MOTION_DDOT = 0

CCSDS_OMM_VERS = 2.0
CREATION_DATE  = 
ORIGINATOR     = 

OBJECT_NAME    = SL-16 R/B
OBJECT_ID      = 1999-039B
CENTER_NAME    = EARTH
REF_FRAME      = TEME
TIME_SYSTEM    = UTC
MEAN_ELEMENT_THEORY = SGP/SGP4

EPOCH          = 2025-12-09T16:16:12.931680
MEAN_MOTION    = 14.81580310
ECCENTRICITY   = .0014685
INCLINATION    = 98.0128
RA_OF_ASC_NODE = 37.8288
ARG_OF_PERICENTER = 184.6275
MEAN_ANOMALY   = 175.4804

EPHEMERIS_TYPE = 0
CLASSIFICATION_TYPE = U
NORAD_CAT_ID   = 25861
ELEMENT_SET_NO = 999
REV_AT_EPOCH   = 42353
BSTAR          = .15629E-3
MEAN_MOTION_DOT = .1175E-4
MEAN_MOTION_DDOT = 0

CCSDS_OMM_VERS = 2.0
CREATION_DATE  = 
ORIGINATOR     = 

OBJECT_NAME    = DELTA 2 R/B
OBJECT_ID      = 1999-041E
CENTER_NAME    = EARTH
REF_FRAME      = TEME
TIME_SYSTEM    = UTC
MEAN_ELEMENT_THEORY = SGP/SGP4

EPOCH          = 2025-12-09T21:08:56.441184
MEAN_MOTION    = 14.11390004
ECCENTRICITY   = .0504737
INCLINATION    = 51.7617
RA_OF_ASC_NODE = 299.8569
ARG_OF_PERICENTER = 83.3404
MEAN_ANOMALY   = 282.4692

EPHEMERIS_TYPE = 0
CLASSIFICATION_TYPE = U
NORAD_CAT_ID   = 25876
ELEMENT_SET_NO = 999
REV_AT_EPOCH   = 35034
BSTAR          = .31524E-3
MEAN_MOTION_DOT = .1714E-4
MEAN_MOTION_DDOT = 0

CCSDS_OMM_VERS = 2.0
CREATION_DATE  = 
ORIGINATOR     = 

OBJECT_NAME    = HELIOS 1B
OBJECT_ID      = 1999-064A
CENTER_NAME    = EARTH
REF_FRAME      = TEME
TIME_SYSTEM    = UTC
MEAN_ELEMENT_THEORY = SGP/SGP4

EPOCH          = 2025-12-09T15:23:38.213664
MEAN_MOTION    = 14.87262594
ECCENTRICITY   = .0001882
INCLINATION    = 98.1752
RA_OF_ASC_NODE = 238.2151
ARG_OF_PERICENTER = 46.8959
MEAN_ANOMALY   = 313.2413

EPHEMERIS_TYPE = 0
CLASSIFICATION_TYPE = U
NORAD_CAT_ID   = 25977
ELEMENT_SET_NO = 999
REV_AT_EPOCH   = 67187
BSTAR          = .38611E-3
MEAN_MOTION_DOT = .3422E-4
MEAN_MOTION_DDOT = 0

CCSDS_OMM_VERS = 2.0
CREATION_DATE  = 
ORIGINATOR     = 

OBJECT_NAME    = TERRA
OBJECT_ID      = 1999-068A
CENTER_NAME    = EARTH
REF_FRAME      = TEME
TIME_SYSTEM    = UTC
MEAN_ELEMENT_THEORY = SGP/SGP4

EPOCH          = 2025-12-09T19:09:34.428096
MEAN_MOTION    = 14.60897092
ECCENTRICITY   = .0003584
INCLINATION    = 97.9752
RA_OF_ASC_NODE = 35.5908
ARG_OF_PERICENTER = 100.1248
MEAN_ANOMALY   = 10.0634

EPHEMERIS_TYPE = 0
CLASSIFICATION_TYPE = U
NORAD_CAT_ID   = 25994
ELEMENT_SET_NO = 999
REV_AT_EPOCH   = 38195
BSTAR          = .17702E-3
MEAN_MOTION_DOT = .822E-5
MEAN_MOTION_DDOT = 0

CCSDS_OMM_VERS = 2.0
CREATION_DATE  = 
ORIGINATOR     = 

OBJECT_NAME    = TITAN 4B R/B
OBJECT_ID      = 2000-047B
CENTER_NAME    = EARTH
REF_FRAME      = TEME
TIME_SYSTEM    = UTC
MEAN_ELEMENT_THEORY = SGP/SGP4

EPOCH          = 2025-12-09T19:49:37.249248
MEAN_MOTION    = 15.08746776
ECCENTRICITY   = .0039148
INCLINATION    = 67.9902
RA_OF_ASC_NODE = 293.0377
ARG_OF_PERICENTER = 148.0768
MEAN_ANOMALY   = 212.2765

EPHEMERIS_TYPE = 0
CLASSIFICATION_TYPE = U
NORAD_CAT_ID   = 26474
ELEMENT_SET_NO = 999
REV_AT_EPOCH   = 37935
BSTAR          = .37089E-3
MEAN_MOTION_DOT = .581E-4
MEAN_MOTION_DDOT = 0

CCSDS_OMM_VERS = 2.0
CREATION_DATE  = 
ORIGINATOR     = 

OBJECT_NAME    = ENVISAT
OBJECT_ID      = 2002-009A
CENTER_NAME    = EARTH
REF_FRAME      = TEME
TIME_SYSTEM    = UTC
MEAN_ELEMENT_THEORY = SGP/SGP4

EPOCH          = 2025-12-09T20:10:20.400960
MEAN_MOTION    = 14.38997695
ECCENTRICITY   = .0001138
INCLINATION    = 98.3595
RA_OF_ASC_NODE = 294.6546
ARG_OF_PERICENTER = 82.2120
MEAN_ANOMALY   = 310.2641

EPHEMERIS_TYPE = 0
CLASSIFICATION_TYPE = U
NORAD_CAT_ID   = 27386
ELEMENT_SET_NO = 999
REV_AT_EPOCH   = 24625
BSTAR          = .10275E-3
MEAN_MOTION_DOT = .274E-5
MEAN_MOTION_DDOT = 0

