SL-16 R/B               
1 25400U 98043G   25343.57081075  .00000173  00000+0  91600-4 0  9995
2 25400  98.8119 291.3712 0008810 277.0903  82.9275 14.26024451426148
SL-16 R/B               
1 25407U 98045B   25343.79808522 -.00000154  00000+0 -53559-4 0  9994
2 25407  71.0121  10.6135 0007076 182.3851 177.7240 14.16175758414378
ISS (ZARYA)             
1 25544U 98067A   25343.50984767  .00014141  00000+0  26026-3 0  9992
2 25544  51.6310 158.4724 0003400 223.8185 136.2534 15.49447168542357
CZ-4B R/B               
1 25732U 99025C   25343.87861514  .00000129  00000+0  83493-4 0  9993
2 25732  98.6772  25.2226 0036205 242.4335 290.7342 14.18242544375432
OKEAN-O                 
1 25860U 99039A   25343.13909267  .00001190  00000+0  16363-3 0  9997
2 25860  97.9606  38.8718 0000790  90.1743 269.9559 14.80151028420994
SL-16 R/B               
1 25861U 99039B   25343.67792745  .00001175  00000+0  15629-3 0  9995
2 25861  98.0128  37.8288 0014685 184.6275 175.4804 14.81580310423532
DELTA 2 R/B             
1 25876U 99041E   25343.88120881  .00001714  00000+0  31524-3 0  9994
2 25876  51.7617 299.8569 0504737  83.3404 282.4692 14.11390004350344
HELIOS 1B               
1 25977U 99064A   25343.64141451  .00003422  00000+0  38611-3 0  9993
2 25977  98.1752 238.2151 0001882  46.8959 313.2413 14.87262594671870
TERRA                   
1 25994U 99068A   25343.79831514  .00000822  00000+0  17702-3 0  9997
2 25994  97.9752  35.5908 0003584 100.1248  10.0634 14.60897092381952
TITAN 4B R/B            
1 26474U 00047B   25343.82612557  .00005810  00000+0  37089-3 0  9990
2 26474  67.9902 293.0377 0039148 148.0768 212.2765 15.08746776379351
ENVISAT                 
1 27386U 02009A   25343.84051390  .00000274  00000+0  10275-3 0  9994
2 27386  98.3595 294.6546 0001138  82.2120 310.2641 14.38997695246258
